{
  "norad_id": 57220,
  "name": "STARLINK-5880",
  "history": [
    {
      "epoch": "2026-03-28T22:00:01.999584Z",
      "apogee_km": 506.81995902231483,
      "perigee_km": 504.08607241167283,
      "latitude_deg": 18.2429253772849,
      "longitude_deg": 149.06747482511793,
      "height_km": 505.36939322094156,
      "semi_major_axis_km": 6883.590015716994,
      "eccentricity": 0.00019858,
      "inclination_deg": 42.9987,
      "raan_deg": 284.8248,
      "arg_perigee_deg": 266.5893,
      "mean_anomaly_deg": 120.6336,
      "mean_motion_rev_day": 15.20128383
    },
    {
      "epoch": "2026-03-29T04:00:01.999584Z",
      "apogee_km": 506.08598211561184,
      "perigee_km": 502.99841222776195,
      "latitude_deg": -28.04214563476801,
      "longitude_deg": 2.2274483816136113,
      "height_km": 511.05097727750604,
      "semi_major_axis_km": 6882.679197171687,
      "eccentricity": 0.0002243,
      "inclination_deg": 42.9996,
      "raan_deg": 283.4278,
      "arg_perigee_deg": 256.3987,
      "mean_anomaly_deg": 60.3095,
      "mean_motion_rev_day": 15.20430142
    },
    {
      "epoch": "2026-03-30T04:00:01.999584Z",
      "apogee_km": 503.790257664823,
      "perigee_km": 501.3522851101043,
      "latitude_deg": 24.474714734277747,
      "longitude_deg": 59.31317746960456,
      "height_km": 503.0962538643733,
      "semi_major_axis_km": 6880.708271387463,
      "eccentricity": 0.00017716,
      "inclination_deg": 42.9989,
      "raan_deg": 277.841,
      "arg_perigee_deg": 270.633,
      "mean_anomaly_deg": 126.6138,
      "mean_motion_rev_day": 15.21083462
    }
  ]
}